IRIDIUM 7 [-]           
1 24793U 97020B   24004.54038617  .00000349  00000+0  11576-3 0  9995
2 24793  86.3950  38.7548 0002430  89.6618 270.4857 14.35027564395917
IRIDIUM 5 [-]           
1 24795U 97020D   24004.38679441  .00003493  00000+0  34603-3 0  9994
2 24795  86.3941 326.0968 0123858 226.1952 132.8980 14.85862239406580
IRIDIUM 4 [-]           
1 24796U 97020E   24004.58274906  .00000363  00000+0  11850-3 0  9996
2 24796  86.3946  35.9668 0002317  94.6488 265.4973 14.35936971396445
IRIDIUM 914 [-]         
1 24836U 97030A   24004.56602992  .00000402  00000+0  12184-3 0  9995
2 24836  86.3923  46.1263 0003232 126.1166 234.0333 14.39768564530897
IRIDIUM 16 [-]          
1 24841U 97030F   24004.57873322  .00000408  00000+0  12920-3 0  9993
2 24841  86.4021  67.6840 0003061  50.1030 310.0436 14.37655155390889
IRIDIUM 911 [-]         
1 24842U 97030G   24004.58467846  .00000514  00000+0  13786-3 0  9994
2 24842  86.4446  66.9457 0016298  66.5737 293.7177 14.46221265398505
IRIDIUM 17 [-]          
1 24870U 97034B   24004.23499115  .00000495  00000+0  16133-3 0  9992
2 24870  86.3959  97.4863 0001147  42.4885 317.6401 14.36750020387462
IRIDIUM 920 [-]         
1 24871U 97034C   24004.60009382  .00000453  00000+0  13620-3 0  9999
2 24871  86.3965  77.7870 0012642  37.3089 322.8985 14.40473647390315
