<?xml version="1.0" encoding="UTF-8"?>
<ndm xmlns:xsi="http://www.w3.org/2001/XMLSchema-instance" xsi:noNamespaceSchemaLocation="https://sanaregistry.org/r/ndmxml_unqualified/ndmxml-2.0.0-master-2.0.xsd">
<omm id="CCSDS_OMM_VERS" version="2.0">
<header><CREATION_DATE/><ORIGINATOR/></header><body><segment><metadata><OBJECT_NAME>IRIDIUM 7 [-]</OBJECT_NAME><OBJECT_ID>1997-020B</OBJECT_ID><CENTER_NAME>EARTH</CENTER_NAME><REF_FRAME>TEME</REF_FRAME><TIME_SYSTEM>UTC</TIME_SYSTEM><MEAN_ELEMENT_THEORY>SGP4</MEAN_ELEMENT_THEORY></metadata><data><meanElements><EPOCH>2024-01-04T12:58:09.365088</EPOCH><MEAN_MOTION>14.35027564</MEAN_MOTION><ECCENTRICITY>.000243</ECCENTRICITY><INCLINATION>86.3950</INCLINATION><RA_OF_ASC_NODE>38.7548</RA_OF_ASC_NODE><ARG_OF_PERICENTER>89.6618</ARG_OF_PERICENTER><MEAN_ANOMALY>270.4857</MEAN_ANOMALY></meanElements><tleParameters><EPHEMERIS_TYPE>0</EPHEMERIS_TYPE><CLASSIFICATION_TYPE>U</CLASSIFICATION_TYPE><NORAD_CAT_ID>24793</NORAD_CAT_ID><ELEMENT_SET_NO>999</ELEMENT_SET_NO><REV_AT_EPOCH>39591</REV_AT_EPOCH><BSTAR>.11576E-3</BSTAR><MEAN_MOTION_DOT>.349E-5</MEAN_MOTION_DOT><MEAN_MOTION_DDOT>0</MEAN_MOTION_DDOT></tleParameters></data></segment></body></omm>
<omm id="CCSDS_OMM_VERS" version="2.0">
<header><CREATION_DATE/><ORIGINATOR/></header><body><segment><metadata><OBJECT_NAME>IRIDIUM 5 [-]</OBJECT_NAME><OBJECT_ID>1997-020D</OBJECT_ID><CENTER_NAME>EARTH</CENTER_NAME><REF_FRAME>TEME</REF_FRAME><TIME_SYSTEM>UTC</TIME_SYSTEM><MEAN_ELEMENT_THEORY>SGP4</MEAN_ELEMENT_THEORY></metadata><data><meanElements><EPOCH>2024-01-04T09:16:59.037024</EPOCH><MEAN_MOTION>14.85862239</MEAN_MOTION><ECCENTRICITY>.0123858</ECCENTRICITY><INCLINATION>86.3941</INCLINATION><RA_OF_ASC_NODE>326.0968</RA_OF_ASC_NODE><ARG_OF_PERICENTER>226.1952</ARG_OF_PERICENTER><MEAN_ANOMALY>132.8980</MEAN_ANOMALY></meanElements><tleParameters><EPHEMERIS_TYPE>0</EPHEMERIS_TYPE><CLASSIFICATION_TYPE>U</CLASSIFICATION_TYPE><NORAD_CAT_ID>24795</NORAD_CAT_ID><ELEMENT_SET_NO>999</ELEMENT_SET_NO><REV_AT_EPOCH>40658</REV_AT_EPOCH><BSTAR>.34603E-3</BSTAR><MEAN_MOTION_DOT>.3493E-4</MEAN_MOTION_DOT><MEAN_MOTION_DDOT>0</MEAN_MOTION_DDOT></tleParameters></data></segment></body></omm>
<omm id="CCSDS_OMM_VERS" version="2.0">
<header><CREATION_DATE/><ORIGINATOR/></header><body><segment><metadata><OBJECT_NAME>IRIDIUM 4 [-]</OBJECT_NAME><OBJECT_ID>1997-020E</OBJECT_ID><CENTER_NAME>EARTH</CENTER_NAME><REF_FRAME>TEME</REF_FRAME><TIME_SYSTEM>UTC</TIME_SYSTEM><MEAN_ELEMENT_THEORY>SGP4</MEAN_ELEMENT_THEORY></metadata><data><meanElements><EPOCH>2024-01-04T13:59:09.518784</EPOCH><MEAN_MOTION>14.35936971</MEAN_MOTION><ECCENTRICITY>.0002317</ECCENTRICITY><INCLINATION>86.3946</INCLINATION><RA_OF_ASC_NODE>35.9668</RA_OF_ASC_NODE><ARG_OF_PERICENTER>94.6488</ARG_OF_PERICENTER><MEAN_ANOMALY>265.4973</MEAN_ANOMALY></meanElements><tleParameters><EPHEMERIS_TYPE>0</EPHEMERIS_TYPE><CLASSIFICATION_TYPE>U</CLASSIFICATION_TYPE><NORAD_CAT_ID>24796</NORAD_CAT_ID><ELEMENT_SET_NO>999</ELEMENT_SET_NO><REV_AT_EPOCH>39644</REV_AT_EPOCH><BSTAR>.1185E-3</BSTAR><MEAN_MOTION_DOT>.363E-5</MEAN_MOTION_DOT><MEAN_MOTION_DDOT>0</MEAN_MOTION_DDOT></tleParameters></data></segment></body></omm>
<omm id="CCSDS_OMM_VERS" version="2.0">
<header><CREATION_DATE/><ORIGINATOR/></header><body><segment><metadata><OBJECT_NAME>IRIDIUM 914 [-]</OBJECT_NAME><OBJECT_ID>1997-030A</OBJECT_ID><CENTER_NAME>EARTH</CENTER_NAME><REF_FRAME>TEME</REF_FRAME><TIME_SYSTEM>UTC</TIME_SYSTEM><MEAN_ELEMENT_THEORY>SGP4</MEAN_ELEMENT_THEORY></metadata><data><meanElements><EPOCH>2024-01-04T13:35:04.985088</EPOCH><MEAN_MOTION>14.39768564</MEAN_MOTION><ECCENTRICITY>.0003232</ECCENTRICITY><INCLINATION>86.3923</INCLINATION><RA_OF_ASC_NODE>46.1263</RA_OF_ASC_NODE><ARG_OF_PERICENTER>126.1166</ARG_OF_PERICENTER><MEAN_ANOMALY>234.0333</MEAN_ANOMALY></meanElements><tleParameters><EPHEMERIS_TYPE>0</EPHEMERIS_TYPE><CLASSIFICATION_TYPE>U</CLASSIFICATION_TYPE><NORAD_CAT_ID>24836</NORAD_CAT_ID><ELEMENT_SET_NO>999</ELEMENT_SET_NO><REV_AT_EPOCH>53089</REV_AT_EPOCH><BSTAR>.12184E-3</BSTAR><MEAN_MOTION_DOT>.402E-5</MEAN_MOTION_DOT><MEAN_MOTION_DDOT>0</MEAN_MOTION_DDOT></tleParameters></data></segment></body></omm>
<omm id="CCSDS_OMM_VERS" version="2.0">
<header><CREATION_DATE/><ORIGINATOR/></header><body><segment><metadata><OBJECT_NAME>IRIDIUM 16 [-]</OBJECT_NAME><OBJECT_ID>1997-030F</OBJECT_ID><CENTER_NAME>EARTH</CENTER_NAME><REF_FRAME>TEME</REF_FRAME><TIME_SYSTEM>UTC</TIME_SYSTEM><MEAN_ELEMENT_THEORY>SGP4</MEAN_ELEMENT_THEORY></metadata><data><meanElements><EPOCH>2024-01-04T13:53:22.550208</EPOCH><MEAN_MOTION>14.37655155</MEAN_MOTION><ECCENTRICITY>.0003061</ECCENTRICITY><INCLINATION>86.4021</INCLINATION><RA_OF_ASC_NODE>67.6840</RA_OF_ASC_NODE><ARG_OF_PERICENTER>50.1030</ARG_OF_PERICENTER><MEAN_ANOMALY>310.0436</MEAN_ANOMALY></meanElements><tleParameters><EPHEMERIS_TYPE>0</EPHEMERIS_TYPE><CLASSIFICATION_TYPE>U</CLASSIFICATION_TYPE><NORAD_CAT_ID>24841</NORAD_CAT_ID><ELEMENT_SET_NO>999</ELEMENT_SET_NO><REV_AT_EPOCH>39088</REV_AT_EPOCH><BSTAR>.1292E-3</BSTAR><MEAN_MOTION_DOT>.408E-5</MEAN_MOTION_DOT><MEAN_MOTION_DDOT>0</MEAN_MOTION_DDOT></tleParameters></data></segment></body></omm>
<omm id="CCSDS_OMM_VERS" version="2.0">
<header><CREATION_DATE/><ORIGINATOR/></header><body><segment><metadata><OBJECT_NAME>IRIDIUM 911 [-]</OBJECT_NAME><OBJECT_ID>1997-030G</OBJECT_ID><CENTER_NAME>EARTH</CENTER_NAME><REF_FRAME>TEME</REF_FRAME><TIME_SYSTEM>UTC</TIME_SYSTEM><MEAN_ELEMENT_THEORY>SGP4</MEAN_ELEMENT_THEORY></metadata><data><meanElements><EPOCH>2024-01-04T14:01:56.218944</EPOCH><MEAN_MOTION>14.46221265</MEAN_MOTION><ECCENTRICITY>.0016298</ECCENTRICITY><INCLINATION>86.4446</INCLINATION><RA_OF_ASC_NODE>66.9457</RA_OF_ASC_NODE><ARG_OF_PERICENTER>66.5737</ARG_OF_PERICENTER><MEAN_ANOMALY>293.7177</MEAN_ANOMALY></meanElements><tleParameters><EPHEMERIS_TYPE>0</EPHEMERIS_TYPE><CLASSIFICATION_TYPE>U</CLASSIFICATION_TYPE><NORAD_CAT_ID>24842</NORAD_CAT_ID><ELEMENT_SET_NO>999</ELEMENT_SET_NO><REV_AT_EPOCH>39850</REV_AT_EPOCH><BSTAR>.13786E-3</BSTAR><MEAN_MOTION_DOT>.514E-5</MEAN_MOTION_DOT><MEAN_MOTION_DDOT>0</MEAN_MOTION_DDOT></tleParameters></data></segment></body></omm>
<omm id="CCSDS_OMM_VERS" version="2.0">
<header><CREATION_DATE/><ORIGINATOR/></header><body><segment><metadata><OBJECT_NAME>IRIDIUM 17 [-]</OBJECT_NAME><OBJECT_ID>1997-034B</OBJECT_ID><CENTER_NAME>EARTH</CENTER_NAME><REF_FRAME>TEME</REF_FRAME><TIME_SYSTEM>UTC</TIME_SYSTEM><MEAN_ELEMENT_THEORY>SGP4</MEAN_ELEMENT_THEORY></metadata><data><meanElements><EPOCH>2024-01-04T05:38:23.235360</EPOCH><MEAN_MOTION>14.36750020</MEAN_MOTION><ECCENTRICITY>.0001147</ECCENTRICITY><INCLINATION>86.3959</INCLINATION><RA_OF_ASC_NODE>97.4863</RA_OF_ASC_NODE><ARG_OF_PERICENTER>42.4885</ARG_OF_PERICENTER><MEAN_ANOMALY>317.6401</MEAN_ANOMALY></meanElements><tleParameters><EPHEMERIS_TYPE>0</EPHEMERIS_TYPE><CLASSIFICATION_TYPE>U</CLASSIFICATION_TYPE><NORAD_CAT_ID>24870</NORAD_CAT_ID><ELEMENT_SET_NO>999</ELEMENT_SET_NO><REV_AT_EPOCH>38746</REV_AT_EPOCH><BSTAR>.16133E-3</BSTAR><MEAN_MOTION_DOT>.495E-5</MEAN_MOTION_DOT><MEAN_MOTION_DDOT>0</MEAN_MOTION_DDOT></tleParameters></data></segment></body></omm>
<omm id="CCSDS_OMM_VERS" version="2.0">
<header><CREATION_DATE/><ORIGINATOR/></header><body><segment><metadata><OBJECT_NAME>IRIDIUM 920 [-]</OBJECT_NAME><OBJECT_ID>1997-034C</OBJECT_ID><CENTER_NAME>EARTH</CENTER_NAME><REF_FRAME>TEME</REF_FRAME><TIME_SYSTEM>UTC</TIME_SYSTEM><MEAN_ELEMENT_THEORY>SGP4</MEAN_ELEMENT_THEORY></metadata><data><meanElements><EPOCH>2024-01-04T14:24:08.106048</EPOCH><MEAN_MOTION>14.40473647</MEAN_MOTION><ECCENTRICITY>.0012642</ECCENTRICITY><INCLINATION>86.3965</INCLINATION><RA_OF_ASC_NODE>77.7870</RA_OF_ASC_NODE><ARG_OF_PERICENTER>37.3089</ARG_OF_PERICENTER><MEAN_ANOMALY>322.8985</MEAN_ANOMALY></meanElements><tleParameters><EPHEMERIS_TYPE>0</EPHEMERIS_TYPE><CLASSIFICATION_TYPE>U</CLASSIFICATION_TYPE><NORAD_CAT_ID>24871</NORAD_CAT_ID><ELEMENT_SET_NO>999</ELEMENT_SET_NO><REV_AT_EPOCH>39031</REV_AT_EPOCH><BSTAR>.1362E-3</BSTAR><MEAN_MOTION_DOT>.453E-5</MEAN_MOTION_DOT><MEAN_MOTION_DDOT>0</MEAN_MOTION_DDOT></tleParameters></data></segment></body></omm>

</ndm>
